{"type": "FeatureCollection", "features": [ {"type": "Feature", "properties": {"norad_id": 67101, "name": "STARLINK-36200", "group": "last-30-days", "lat": 69.56184688562398, "lon": -34.8187510495174, "alt_km": 297.9390257094665, "timestamp": "2025-12-22T05:49:02.189666+00:00", "meta": {"OBJECT_NAME": "STARLINK-36200", "OBJECT_ID": "2025-298AC", "EPOCH": "2025-12-21T20:00:01.999008", "MEAN_MOTION": 15.89894394, "ECCENTRICITY": 0.0003701, "INCLINATION": 69.9977, "RA_OF_ASC_NODE": 224.1989, "ARG_OF_PERICENTER": 275.3854, "MEAN_ANOMALY": 358.4882, "EPHEMERIS_TYPE": 0, "CLASSIFICATION_TYPE": "U", "NORAD_CAT_ID": 67101, "ELEMENT_SET_NO": 999, "REV_AT_EPOCH": 244, "BSTAR": -0.00040437, "MEAN_MOTION_DOT": -0.00122078, "MEAN_MOTION_DDOT": 8.7948e-06}, "tle": {"line1": "1 67101U 25298AC  25355.83335647 -.00122078  87948-5 -40437-3 0  9994", "line2": "2 67101  69.9977 224.1989 0003701 275.3854 358.4882 15.89894394  2442"}}, "geometry": {"type": "Point", "coordinates": [-34.8187510495174, 69.56184688562398]}}, {"type": "Feature", "properties": {"norad_id": 67102, "name": "STARLINK-36255", "group": "last-30-days", "lat": -42.41275050200397, "lon": 157.2805169364732, "alt_km": 293.83833067201886, "timestamp": "2025-12-22T05:49:02.189677+00:00", "meta": {"OBJECT_NAME": "STARLINK-36255", "OBJECT_ID": "2025-299A", "EPOCH": "2025-12-21T20:00:01.999008", "MEAN_MOTION": 15.93879683, "ECCENTRICITY": 0.0001661, "INCLINATION": 42.9987, "RA_OF_ASC_NODE": 261.1902, "ARG_OF_PERICENTER": 269.3634, "MEAN_ANOMALY": 162.3963, "EPHEMERIS_TYPE": 0, "CLASSIFICATION_TYPE": "U", "NORAD_CAT_ID": 67102, "ELEMENT_SET_NO": 999, "REV_AT_EPOCH": 227, "BSTAR": -0.00021401, "MEAN_MOTION_DOT": -0.00084107, "MEAN_MOTION_DDOT": 1.0696e-05}, "tle": {"line1": "1 67102U 25299A   25355.83335647 -.00084107  10696-4 -21401-3 0  9991", "line2": "2 67102  42.9987 261.1902 0001661 269.3634 162.3963 15.93879683  2275"}}, "geometry": {"type": "Point", "coordinates": [157.2805169364732, -42.41275050200397]}}, {"type": "Feature", "properties": {"norad_id": 67103, "name": "STARLINK-36256", "group": "last-30-days", "lat": -42.560513388109065, "lon": 158.86736125133433, "alt_km": 294.0956228570067, "timestamp": "2025-12-22T05:49:02.189687+00:00", "meta": {"OBJECT_NAME": "STARLINK-36256", "OBJECT_ID": "2025-299B", "EPOCH": "2025-12-21T20:00:01.999008", "MEAN_MOTION": 15.94099211, "ECCENTRICITY": 0.0001486, "INCLINATION": 42.9988, "RA_OF_ASC_NODE": 261.1876, "ARG_OF_PERICENTER": 275.4037, "MEAN_ANOMALY": 157.4206, "EPHEMERIS_TYPE": 0, "CLASSIFICATION_TYPE": "U", "NORAD_CAT_ID": 67103, "ELEMENT_SET_NO": 999, "REV_AT_EPOCH": 227, "BSTAR": -0.0010976, "MEAN_MOTION_DOT": -0.00424976, "MEAN_MOTION_DDOT": 6.6976e-05}, "tle": {"line1": "1 67103U 25299B   25355.83335647 -.00424976  66976-4 -10976-2 0  9990", "line2": "2 67103  42.9988 261.1876 0001486 275.4037 157.4206 15.94099211  2274"}}, "geometry": {"type": "Point", "coordinates": [158.86736125133433, -42.560513388109065]}}, {"type": "Feature", "properties": {"norad_id": 67104, "name": "STARLINK-36258", "group": "last-30-days", "lat": -42.69794128164577, "lon": 160.62489866826414, "alt_km": 293.1054908465376, "timestamp": "2025-12-22T05:49:02.189697+00:00", "meta": {"OBJECT_NAME": "STARLINK-36258", "OBJECT_ID": "2025-299C", "EPOCH": "2025-12-21T20:00:01.999008", "MEAN_MOTION": 15.93915759, "ECCENTRICITY": 0.00029, "INCLINATION": 42.999, "RA_OF_ASC_NODE": 261.1838, "ARG_OF_PERICENTER": 272.7242, "MEAN_ANOMALY": 161.5203, "EPHEMERIS_TYPE": 0, "CLASSIFICATION_TYPE": "U", "NORAD_CAT_ID": 67104, "ELEMENT_SET_NO": 999, "REV_AT_EPOCH": 227, "BSTAR": -0.00041573, "MEAN_MOTION_DOT": -0.00161215, "MEAN_MOTION_DDOT": 1.7012e-05}, "tle": {"line1": "1 67104U 25299C   25355.83335647 -.00161215  17012-4 -41573-3 0  9990", "line2": "2 67104  42.9990 261.1838 0002900 272.7242 161.5203 15.93915759  2272"}}, "geometry": {"type": "Point", "coordinates": [160.62489866826414, -42.69794128164577]}}, {"type": "Feature", "properties": {"norad_id": 67105, "name": "STARLINK-36261", "group": "last-30-days", "lat": -42.787109213484676, "lon": 162.0222688375594, "alt_km": 293.3976986592015, "timestamp": "2025-12-22T05:49:02.189710+00:00", "meta": {"OBJECT_NAME": "STARLINK-36261", "OBJECT_ID": "2025-299D", "EPOCH": "2025-12-21T20:00:01.999008", "MEAN_MOTION": 15.93905223, "ECCENTRICITY": 0.0002322, "INCLINATION": 42.9987, "RA_OF_ASC_NODE": 261.1815, "ARG_OF_PERICENTER": 272.9904, "MEAN_ANOMALY": 162.269, "EPHEMERIS_TYPE": 0, "CLASSIFICATION_TYPE": "U", "NORAD_CAT_ID": 67105, "ELEMENT_SET_NO": 999, "REV_AT_EPOCH": 227, "BSTAR": -0.00027426, "MEAN_MOTION_DOT": -0.0010719, "MEAN_MOTION_DDOT": 1.2173e-05}, "tle": {"line1": "1 67105U 25299D   25355.83335647 -.00107190  12173-4 -27426-3 0  9997", "line2": "2 67105  42.9987 261.1815 0002322 272.9904 162.2690 15.93905223  2272"}}, "geometry": {"type": "Point", "coordinates": [162.0222688375594, -42.787109213484676]}}, {"type": "Feature", "properties": {"norad_id": 67106, "name": "STARLINK-36259", "group": "last-30-days", "lat": -42.95277256294577, "lon": 166.2387513485134, "alt_km": 293.3108031131551, "timestamp": "2025-12-22T05:49:02.189722+00:00", "meta": {"OBJECT_NAME": "STARLINK-36259", "OBJECT_ID": "2025-299E", "EPOCH": "2025-12-21T20:00:01.999008", "MEAN_MOTION": 15.93854396, "ECCENTRICITY": 0.0002424, "INCLINATION": 42.9987, "RA_OF_ASC_NODE": 261.1736, "ARG_OF_PERICENTER": 280.1244, "MEAN_ANOMALY": 158.2631, "EPHEMERIS_TYPE": 0, "CLASSIFICATION_TYPE": "U", "NORAD_CAT_ID": 67106, "ELEMENT_SET_NO": 999, "REV_AT_EPOCH": 227, "BSTAR": -3.7627e-05, "MEAN_MOTION_DOT": -0.00016957, "MEAN_MOTION_DDOT": 8.4598e-06}, "tle": {"line1": "1 67106U 25299E   25355.83335647 -.00016957  84598-5 -37627-4 0  9994", "line2": "2 67106  42.9987 261.1736 0002424 280.1244 158.2631 15.93854396  2270"}}, "geometry": {"type": "Point", "coordinates": [166.2387513485134, -42.95277256294577]}}, {"type": "Feature", "properties": {"norad_id": 67107, "name": "STARLINK-36196", "group": "last-30-days", "lat": -42.88337018745521, "lon": 163.97544641087384, "alt_km": 293.7530908365634, "timestamp": "2025-12-22T05:49:02.189732+00:00", "meta": {"OBJECT_NAME": "STARLINK-36196", "OBJECT_ID": "2025-299F", "EPOCH": "2025-12-21T20:00:01.999008", "MEAN_MOTION": 15.93874855, "ECCENTRICITY": 0.0001754, "INCLINATION": 42.9988, "RA_OF_ASC_NODE": 261.1779, "ARG_OF_PERICENTER": 273.3022, "MEAN_ANOMALY": 163.4124, "EPHEMERIS_TYPE": 0, "CLASSIFICATION_TYPE": "U", "NORAD_CAT_ID": 67107, "ELEMENT_SET_NO": 999, "REV_AT_EPOCH": 227, "BSTAR": -0.00015017, "MEAN_MOTION_DOT": -0.00059795, "MEAN_MOTION_DDOT": 9.5292e-06}, "tle": {"line1": "1 67107U 25299F   25355.83335647 -.00059795  95292-5 -15017-3 0  9993", "line2": "2 67107  42.9988 261.1779 0001754 273.3022 163.4124 15.93874855  2279"}}, "geometry": {"type": "Point", "coordinates": [163.97544641087384, -42.88337018745521]}}, {"type": "Feature", "properties": {"norad_id": 67108, "name": "STARLINK-36208", "group": "last-30-days", "lat": -42.977595542132214, "lon": 168.4679154389859, "alt_km": 293.22577048932635, "timestamp": "2025-12-22T05:49:02.189742+00:00", "meta": {"OBJECT_NAME": "STARLINK-36208", "OBJECT_ID": "2025-299G", "EPOCH": "2025-12-21T20:00:01.999008", "MEAN_MOTION": 15.93892282, "ECCENTRICITY": 0.0002638, "INCLINATION": 42.9989, "RA_OF_ASC_NODE": 261.1696, "ARG_OF_PERICENTER": 281.9637, "MEAN_ANOMALY": 158.0494, "EPHEMERIS_TYPE": 0, "CLASSIFICATION_TYPE": "U", "NORAD_CAT_ID": 67108, "ELEMENT_SET_NO": 999, "REV_AT_EPOCH": 227, "BSTAR": -0.00022841, "MEAN_MOTION_DOT": -0.00089661, "MEAN_MOTION_DDOT": 1.1018e-05}, "tle": {"line1": "1 67108U 25299G   25355.83335647 -.00089661  11018-4 -22841-3 0  9995", "line2": "2 67108  42.9989 261.1696 0002638 281.9637 158.0494 15.93892282  2272"}}, "geometry": {"type": "Point", "coordinates": [168.4679154389859, -42.977595542132214]}}, {"type": "Feature", "properties": {"norad_id": 67109, "name": "STARLINK-35764", "group": "last-30-days", "lat": -42.953439173250935, "lon": 170.97305632804782, "alt_km": 293.59701272645, "timestamp": "2025-12-22T05:49:02.189754+00:00", "meta": {"OBJECT_NAME": "STARLINK-35764", "OBJECT_ID": "2025-299H", "EPOCH": "2025-12-21T20:00:01.999008", "MEAN_MOTION": 15.93865, "ECCENTRICITY": 0.0002057, "INCLINATION": 42.9989, "RA_OF_ASC_NODE": 261.1647, "ARG_OF_PERICENTER": 252.8858, "MEAN_ANOMALY": 188.9693, "EPHEMERIS_TYPE": 0, "CLASSIFICATION_TYPE": "U", "NORAD_CAT_ID": 67109, "ELEMENT_SET_NO": 999, "REV_AT_EPOCH": 216, "BSTAR": -0.00012508, "MEAN_MOTION_DOT": -0.00050226, "MEAN_MOTION_DDOT": 9.1804e-06}, "tle": {"line1": "1 67109U 25299H   25355.83335647 -.00050226  91804-5 -12508-3 0  9992", "line2": "2 67109  42.9989 261.1647 0002057 252.8858 188.9693 15.93865000  2165"}}, "geometry": {"type": "Point", "coordinates": [170.97305632804782, -42.953439173250935]}}, {"type": "Feature", "properties": {"norad_id": 67110, "name": "STARLINK-35781", "group": "last-30-days", "lat": -42.75735453774432, "lon": 175.70934863771495, "alt_km": 293.3608092276372, "timestamp": "2025-12-22T05:49:02.189765+00:00", "meta": {"OBJECT_NAME": "STARLINK-35781", "OBJECT_ID": "2025-299J", "EPOCH": "2025-12-21T20:00:01.999008", "MEAN_MOTION": 15.93886585, "ECCENTRICITY": 0.0002414, "INCLINATION": 42.9988, "RA_OF_ASC_NODE": 261.156, "ARG_OF_PERICENTER": 263.5862, "MEAN_ANOMALY": 181.7578, "EPHEMERIS_TYPE": 0, "CLASSIFICATION_TYPE": "U", "NORAD_CAT_ID": 67110, "ELEMENT_SET_NO": 999, "REV_AT_EPOCH": 222, "BSTAR": -0.00025303, "MEAN_MOTION_DOT": -0.00099006, "MEAN_MOTION_DDOT": 1.1608e-05}, "tle": {"line1": "1 67110U 25299J   25355.83335647 -.00099006  11608-4 -25303-3 0  9993", "line2": "2 67110  42.9988 261.1560 0002414 263.5862 181.7578 15.93886585  2222"}}, "geometry": {"type": "Point", "coordinates": [175.70934863771495, -42.75735453774432]}}]}